[{"OBJECT_NAME":"STARLINK-5521","OBJECT_ID":"2023-064Z","EPOCH":"2026-03-09T12:49:55.294464","MEAN_MOTION":14.98327281,"ECCENTRICITY":0.00028776,"INCLINATION":69.9998,"RA_OF_ASC_NODE":124.9485,"ARG_OF_PERICENTER":266.8459,"MEAN_ANOMALY":93.2371,"EPHEMERIS_TYPE":0,"CLASSIFICATION_TYPE":"U","NORAD_CAT_ID":56471,"ELEMENT_SET_NO":999,"REV_AT_EPOCH":15571,"BSTAR":-5.1809779e-5,"MEAN_MOTION_DOT":-7.11e-6,"MEAN_MOTION_DDOT":0},{"OBJECT_NAME":"HAWK-10B","OBJECT_ID":"2024-149CF","EPOCH":"2026-03-09T22:24:07.674624","MEAN_MOTION":14.96175068,"ECCENTRICITY":0.00063882,"INCLINATION":97.6865,"RA_OF_ASC_NODE":146.0046,"ARG_OF_PERICENTER":71.247,"MEAN_ANOMALY":288.9444,"EPHEMERIS_TYPE":0,"CLASSIFICATION_TYPE":"U","NORAD_CAT_ID":60545,"ELEMENT_SET_NO":999,"REV_AT_EPOCH":8514,"BSTAR":0.00020768682,"MEAN_MOTION_DOT":2.283e-5,"MEAN_MOTION_DDOT":0}]
